ONEWEB-0311             
1 49097U 21075Y   25318.65203147  .00000037  00000+0  61959-4 0  9994
2 49097  87.9140  48.5131 0001358 103.5408 256.5875 13.17648696205376
ONEWEB-0312             
1 49098U 21075Z   25318.51534063  .00000034  00000+0  55507-4 0  9993
2 49098  87.9131  48.5683 0001488  91.7791 268.3511 13.17651723205335
ONEWEB-0313             
1 49099U 21075AA  25318.67214694  .00000041  00000+0  71476-4 0  9997
2 49099  87.9129  48.5457 0001626 101.5884 258.5430 13.17651154205349
ONEWEB-0314             
1 49100U 21075AB  25318.48666220  .00000097  00000+0  21620-3 0  9991
2 49100  87.9143  48.5307 0001437  90.9477 269.1819 13.17652203205290
ONEWEB-0315             
1 49101U 21075AC  25318.44930839  .00000156  00000+0  39911-3 0  9996
2 49101  87.8968  33.3005 0001398 107.0710 253.0571 13.12442335207004
ONEWEB-0316             
1 49102U 21075AD  25318.42836520  .00000126  00000+0  28619-3 0  9997
2 49102  87.9217  18.1228 0001676 100.5989 259.5332 13.18688620208907
ONEWEB-0317             
1 49103U 21075AE  25318.44281753  .00000343  00000+0  91941-3 0  9991
2 49103  87.8972  33.3186 0002466  92.1028 268.0383 13.12440742207023
ONEWEB-0318             
1 49104U 21075AF  25318.42507928  .00000090  00000+0  19584-3 0  9997
2 49104  87.9218  18.1103 0001476 100.9554 259.1744 13.18685341208867
